[{"OBJECT_NAME":"STARLINK-32210","OBJECT_ID":"2024-150M","EPOCH":"2026-03-09T22:35:03.865344","MEAN_MOTION":15.30190926,"ECCENTRICITY":0.00011019,"INCLINATION":53.1597,"RA_OF_ASC_NODE":305.5858,"ARG_OF_PERICENTER":77.9257,"MEAN_ANOMALY":282.1867,"EPHEMERIS_TYPE":0,"CLASSIFICATION_TYPE":"U","NORAD_CAT_ID":60594,"ELEMENT_SET_NO":999,"REV_AT_EPOCH":8808,"BSTAR":3.589952e-5,"MEAN_MOTION_DOT":7.04e-6,"MEAN_MOTION_DDOT":0},{"OBJECT_NAME":"OBJECT A","OBJECT_ID":"2024-203A","EPOCH":"2026-03-09T23:31:20.812800","MEAN_MOTION":15.27300571,"ECCENTRICITY":0.00108989,"INCLINATION":97.4288,"RA_OF_ASC_NODE":139.5608,"ARG_OF_PERICENTER":322.6893,"MEAN_ANOMALY":37.3588,"EPHEMERIS_TYPE":0,"CLASSIFICATION_TYPE":"U","NORAD_CAT_ID":61869,"ELEMENT_SET_NO":999,"REV_AT_EPOCH":7380,"BSTAR":0.00061472876,"MEAN_MOTION_DOT":0.00016411,"MEAN_MOTION_DDOT":0}]
